NORAD_CAT_ID,OBJECT_NAME,OBJECT_TYPE,EPOCH,MEAN_MOTION,ECCENTRICITY,INCLINATION,RA_OF_ASC_NODE,ARG_OF_PERICENTER,MEAN_ANOMALY,BSTAR,MEAN_MOTION_DOT,MEAN_MOTION_DDOT,TLE_LINE0,TLE_LINE1,TLE_LINE2,SEMIMAJOR_AXIS,PERIOD,APOGEE,PERIGEE,DECAYED
52370.0,STARLINK-3827,PAYLOAD,2024-02-10 04:34:16,15.08836749,0.0001452,53.219,354.1653,87.3889,272.7269,0.00012367,1.681e-05,0.0,0 STARLINK-3827,1 52370U 22045AR  24041.19047097  .00001681  00000-0  12367-3 0  9996,2 52370  53.2190 354.1653 0001452  87.3889 272.7269 15.08836749101414,6917.89,95.438,540.76,538.751,0.0
52370.0,STARLINK-3827,PAYLOAD,2024-02-11 02:49:40,15.08853343,0.0001596,53.2181,350.0022,69.7902,290.3261,5.9566e-05,6.6e-06,0.0,0 STARLINK-3827,1 52370U 22045AR  24042.11782425  .00000660  00000-0  59566-4 0  9999,2 52370  53.2181 350.0022 0001596  69.7902 290.3261 15.08853343101550,6917.84,95.437,540.809,538.601,0.0
52370.0,STARLINK-3827,PAYLOAD,2024-02-12 02:40:27,15.08845984,0.0001435,53.2193,345.5411,92.7633,267.3523,0.00011404,1.528e-05,0.0,0 STARLINK-3827,1 52370U 22045AR  24043.11142492  .00001528  00000-0  11404-3 0  9996,2 52370  53.2193 345.5411 0001435  92.7633 267.3523 15.08845984101707,6917.862,95.437,540.72,538.734,0.0
52370.0,STARLINK-3827,PAYLOAD,2024-02-12 05:51:12,15.08852391,0.0001391,53.2193,344.9443,104.3443,255.7703,0.00014793,2.068e-05,0.0,0 STARLINK-3827,1 52370U 22045AR  24043.24389985  .00002068  00000-0  14793-3 0  9994,2 52370  53.2193 344.9443 0001391 104.3443 255.7703 15.08852391101728,6917.843,95.437,540.67,538.745,0.0
52370.0,STARLINK-3827,PAYLOAD,2024-02-13 02:31:13,15.08846809,0.0001676,53.2185,341.0789,110.827,249.2902,0.00011643,1.566e-05,0.0,0 STARLINK-3827,1 52370U 22045AR  24044.10502249  .00001566  00000-0  11643-3 0  9993,2 52370  53.2185 341.0789 0001676 110.8270 249.2902 15.08846809101856,6917.86,95.437,540.884,538.565,0.0
52370.0,STARLINK-3827,PAYLOAD,2024-02-13 05:41:59,15.08852372,0.0001622,53.2186,340.4816,107.589,252.528,5.9909e-05,6.66e-06,0.0,0 STARLINK-3827,1 52370U 22045AR  24044.23749808  .00000666  00000-0  59909-4 0  9999,2 52370  53.2186 340.4816 0001622 107.5890 252.5280 15.08852372101873,6917.843,95.437,540.83,538.585,0.0
52370.0,STARLINK-3827,PAYLOAD,2024-02-14 02:22:01,15.08839275,0.0001561,53.2185,336.6199,110.1961,249.9199,-7.0856e-05,-1.415e-05,0.0,0 STARLINK-3827,1 52370U 22045AR  24045.09862685 -.00001415  00000-0 -70856-4 0  9992,2 52370  53.2185 336.6199 0001561 110.1961 249.9199 15.08839275102006,6917.883,95.438,540.827,538.668,0.0
52370.0,STARLINK-3827,PAYLOAD,2024-02-14 11:54:20,15.08839396,0.0001546,53.2191,334.8367,95.8108,264.306,-4.4592e-05,-9.98e-06,0.0,0 STARLINK-3827,1 52370U 22045AR  24045.49606807 -.00000998  00000-0 -44592-4 0  9991,2 52370  53.2191 334.8367 0001546  95.8108 264.3060 15.08839396102063,6917.882,95.438,540.817,538.678,0.0
52370.0,STARLINK-3827,PAYLOAD,2024-02-14 19:51:16,15.08838419,0.00017,53.2189,333.3515,118.6837,241.4326,-2.569e-05,-6.97e-06,0.0,0 STARLINK-3827,1 52370U 22045AR  24045.82727045 -.00000697  00000-0 -25690-4 0  9990,2 52370  53.2189 333.3515 0001700 118.6837 241.4326 15.08838419102116,6917.885,95.438,540.926,538.574,0.0
52370.0,STARLINK-3827,PAYLOAD,2024-02-15 03:48:11,15.08850512,0.0001604,53.2191,331.8676,115.5958,244.52,0.00018204,2.611e-05,0.0,0 STARLINK-3827,1 52370U 22045AR  24046.15846429  .00002611  00000-0  18204-3 0  9993,2 52370  53.2191 331.8676 0001604 115.5958 244.5200 15.08850512102161,6917.848,95.437,540.823,538.604,0.0
52370.0,STARLINK-3827,PAYLOAD,2024-02-15 18:06:40,15.08834485,0.0001762,53.2183,329.193,96.9304,263.1888,0.00016398,2.322e-05,0.0,0 STARLINK-3827,1 52370U 22045AR  24046.75463586  .00002322  00000-0  16398-3 0  9999,2 52370  53.2183 329.1930 0001762  96.9304 263.1888 15.08834485102257,6917.897,95.438,540.981,538.543,0.0
52370.0,STARLINK-3827,PAYLOAD,2024-02-15 22:52:50,15.08824866,0.0001486,53.218,328.2979,101.0619,259.054,-6.5641e-05,-1.332e-05,0.0,0 STARLINK-3827,1 52370U 22045AR  24046.95336138 -.00001332  00000-0 -65641-4 0  9991,2 52370  53.2180 328.2979 0001486 101.0619 259.0540 15.08824866102281,6917.927,95.439,540.82,538.764,0.0
52370.0,STARLINK-3827,PAYLOAD,2024-02-16 11:35:55,15.08838875,0.0001641,53.2188,325.9179,87.8331,272.2849,0.00015385,2.161e-05,0.0,0 STARLINK-3827,1 52370U 22045AR  24047.48327849  .00002161  00000-0  15385-3 0  9997,2 52370  53.2188 325.9179 0001641  87.8331 272.2849 15.08838875102363,6917.884,95.438,540.884,538.614,0.0
52370.0,STARLINK-3827,PAYLOAD,2024-02-17 01:54:23,15.08846913,0.0001497,53.2172,323.2424,87.186,272.9303,0.00036843,5.582e-05,0.0,0 STARLINK-3827,1 52370U 22045AR  24048.07943653  .00005582  00000-0  36843-3 0  9992,2 52370  53.2172 323.2424 0001497  87.1860 272.9303 15.08846913102453,6917.859,95.437,540.76,538.689,0.0
52370.0,STARLINK-3827,PAYLOAD,2024-02-17 11:26:42,15.08843226,0.0001448,53.2172,321.4578,74.8682,285.247,0.00030944,4.641e-05,0.0,0 STARLINK-3827,1 52370U 22045AR  24048.47687856  .00004641  00000-0  30944-3 0  9997,2 52370  53.2172 321.4578 0001448  74.8682 285.2470 15.08843226102517,6917.871,95.437,540.737,538.734,0.0
52370.0,STARLINK-3827,PAYLOAD,2024-02-17 22:34:24,15.08836527,0.0001683,53.2175,319.3764,79.0485,281.0697,9.593e-05,1.239e-05,0.0,0 STARLINK-3827,1 52370U 22045AR  24048.94056227  .00001239  00000-0  95930-4 0  9998,2 52370  53.2175 319.3764 0001683  79.0485 281.0697 15.08836527102580,6917.891,95.438,540.92,538.592,0.0
52370.0,STARLINK-3827,PAYLOAD,2024-02-18 11:17:29,15.08845733,0.0001674,53.2182,316.9943,87.7282,272.3902,0.00023266,3.417e-05,0.0,0 STARLINK-3827,1 52370U 22045AR  24049.47047970  .00003417  00000-0  23266-3 0  9994,2 52370  53.2182 316.9943 0001674  87.7282 272.3902 15.08845733102661,6917.863,95.437,540.886,538.57,0.0
52370.0,STARLINK-3827,PAYLOAD,2024-02-18 22:25:11,15.08851398,0.0001553,53.2177,314.9126,86.5728,273.5441,0.00032461,4.884e-05,0.0,0 STARLINK-3827,1 52370U 22045AR  24049.93415577  .00004884  00000-0  32461-3 0  9993,2 52370  53.2177 314.9126 0001553  86.5728 273.5441 15.08851398102737,6917.846,95.437,540.785,538.636,0.0
52370.0,STARLINK-3827,PAYLOAD,2024-02-19 11:08:16,15.08836755,0.0001682,53.2185,312.5362,76.4315,283.6864,-1.2008e-05,-4.79e-06,0.0,0 STARLINK-3827,1 52370U 22045AR  24050.46407998 -.00000479  00000-0 -12008-4 0  9995,2 52370  53.2185 312.5362 0001682  76.4315 283.6864 15.08836755102815,6917.89,95.438,540.919,538.592,0.0
52370.0,STARLINK-3827,PAYLOAD,2024-02-19 22:15:58,15.08835067,0.0001491,53.2168,310.4516,100.7754,259.3406,-2.3038e-05,-6.55e-06,0.0,0 STARLINK-3827,1 52370U 22045AR  24050.92776067 -.00000655  00000-0 -23038-4 0  9993,2 52370  53.2168 310.4516 0001491 100.7754 259.3406 15.08835067102884,6917.895,95.438,540.792,538.729,0.0
52370.0,STARLINK-3827,PAYLOAD,2024-02-19 23:51:21,15.08831525,0.000155,53.2183,310.1585,78.0465,282.0701,-6.8915e-05,-1.384e-05,0.0,0 STARLINK-3827,1 52370U 22045AR  24050.99400306 -.00001384  00000-0 -68915-4 0  9993,2 52370  53.2183 310.1585 0001550  78.0465 282.0701 15.08831525102893,6917.906,95.438,540.844,538.699,0.0
52370.0,STARLINK-3827,PAYLOAD,2024-02-20 22:06:45,15.0884705,0.000164,53.2193,305.9959,78.0959,282.0217,0.00055874,8.617e-05,0.0,0 STARLINK-3827,1 52370U 22045AR  24051.92136333  .00008617  00000-0  55874-3 0  9996,2 52370  53.2193 305.9959 0001640  78.0959 282.0217 15.08847050103038,6917.859,95.437,540.858,538.589,0.0
52370.0,STARLINK-3827,PAYLOAD,2024-02-21 02:52:54,15.08859299,0.0001664,53.2187,305.1025,80.3547,279.7633,0.00083922,0.000131,0.0,0 STARLINK-3827,1 52370U 22045AR  24052.12007971  .00013100  00000-0  83922-3 0  9992,2 52370  53.2187 305.1025 0001664  80.3547 279.7633 15.08859299103068,6917.821,95.436,540.838,538.535,0.0
52370.0,STARLINK-3827,PAYLOAD,2024-02-21 09:14:27,15.08852141,0.0001739,53.2166,303.9079,62.8343,297.2826,0.00052124,8.02e-05,0.0,0 STARLINK-3827,1 52370U 22045AR  24052.38504055  .00008020  00000-0  52124-3 0  9990,2 52370  53.2166 303.9079 0001739  62.8343 297.2826 15.08852141103105,6917.843,95.437,540.911,538.505,0.0
52370.0,STARLINK-3827,PAYLOAD,2024-02-21 20:22:09,15.08847607,0.0001423,53.218,301.832,82.107,278.0083,0.0002031,2.947e-05,0.0,0 STARLINK-3827,1 52370U 22045AR  24052.84871993  .00002947  00000-0  20310-3 0  9993,2 52370  53.2180 301.8320 0001423  82.1070 278.0083 15.08847607103179,6917.857,95.437,540.707,538.738,0.0
52370.0,STARLINK-3827,PAYLOAD,2024-02-21 21:57:32,15.08850061,0.0001463,53.2178,301.5346,84.3892,275.7267,0.0002946,4.405e-05,0.0,0 STARLINK-3827,1 52370U 22045AR  24052.91495869  .00004405  00000-0  29460-3 0  9991,2 52370  53.2178 301.5346 0001463  84.3892 275.7267 15.08850061103188,6917.85,95.437,540.727,538.703,0.0
52370.0,STARLINK-3827,PAYLOAD,2024-02-22 09:05:14,15.08848093,0.0001478,53.2173,299.4531,80.4801,279.6358,0.00042112,6.422e-05,0.0,0 STARLINK-3827,1 52370U 22045AR  24053.37863849  .00006422  00000-0  42112-3 0  9999,2 52370  53.2173 299.4531 0001478  80.4801 279.6358 15.08848093103251,6917.856,95.437,540.743,538.698,0.0
52370.0,STARLINK-3827,PAYLOAD,2024-02-22 20:12:56,15.08838951,0.0001523,53.2175,297.3721,91.7594,268.3573,3.1475e-05,2.13e-06,0.0,0 STARLINK-3827,1 52370U 22045AR  24053.84231961  .00000213  00000-0  31475-4 0  9998,2 52370  53.2175 297.3721 0001523  91.7594 268.3573 15.08838951103320,6917.884,95.438,540.802,538.695,0.0
52370.0,STARLINK-3827,PAYLOAD,2024-02-22 21:48:19,15.08839457,0.0001482,53.2174,297.0745,86.5298,273.5863,-2.7186e-05,-7.21e-06,0.0,0 STARLINK-3827,1 52370U 22045AR  24053.90855992 -.00000721  00000-0 -27186-4 0  9991,2 52370  53.2174 297.0745 0001482  86.5298 273.5863 15.08839457103332,6917.882,95.438,540.772,538.722,0.0
52370.0,STARLINK-3827,PAYLOAD,2024-02-23 08:56:01,15.08839618,0.0001472,53.2171,294.9927,89.933,270.183,4.4889e-06,-2.17e-06,0.0,0 STARLINK-3827,1 52370U 22045AR  24054.37224034 -.00000217  00000-0  44889-5 0  9999,2 52370  53.2171 294.9927 0001472  89.9330 270.1830 15.08839618103404,6917.882,95.438,540.765,538.728,0.0
